[{"OBJECT_NAME":"STARLINK-1362","OBJECT_ID":"2020-025H","EPOCH":"2026-03-09T11:02:25.448928","MEAN_MOTION":15.30206066,"ECCENTRICITY":0.00013706,"INCLINATION":53.1615,"RA_OF_ASC_NODE":102.0656,"ARG_OF_PERICENTER":93.096,"MEAN_ANOMALY":267.0198,"EPHEMERIS_TYPE":0,"CLASSIFICATION_TYPE":"U","NORAD_CAT_ID":45538,"ELEMENT_SET_NO":999,"REV_AT_EPOCH":32514,"BSTAR":5.6519661e-5,"MEAN_MOTION_DOT":1.315e-5,"MEAN_MOTION_DDOT":0},{"OBJECT_NAME":"239ALFEROV (RS61S)","OBJECT_ID":"2025-155F","EPOCH":"2026-03-09T21:46:33.382848","MEAN_MOTION":15.29933217,"ECCENTRICITY":0.00084878,"INCLINATION":97.4469,"RA_OF_ASC_NODE":37.6373,"ARG_OF_PERICENTER":151.5904,"MEAN_ANOMALY":208.58,"EPHEMERIS_TYPE":0,"CLASSIFICATION_TYPE":"U","NORAD_CAT_ID":64881,"ELEMENT_SET_NO":999,"REV_AT_EPOCH":6561,"BSTAR":0.00067233359,"MEAN_MOTION_DOT":0.00019457,"MEAN_MOTION_DDOT":0}]
